$$SOE
2461295.500000000, A.D. 2026-Sep-12 00:00:00.0000, 1.019345479248320E+08, 4.157053004735330E+08, -1.249871814785531E+07,
2461302.500000000, A.D. 2026-Sep-19 00:00:00.0000, 9.064289265910771E+07, 4.177365187223427E+08, -1.273946266377378E+07,
2461309.500000000, A.D. 2026-Sep-26 00:00:00.0000, 7.929490780366319E+07, 4.195084491640618E+08, -1.297229653578404E+07,
2461316.500000000, A.D. 2026-Oct-03 00:00:00.0000, 6.789745497224461E+07, 4.210190501947774E+08, -1.319704591151768E+07,
2461323.500000000, A.D. 2026-Oct-10 00:00:00.0000, 5.645748987924733E+07, 4.222665097112331E+08, -1.341354329721406E+07,
2461330.500000000, A.D. 2026-Oct-17 00:00:00.0000, 4.498205244476475E+07, 4.232492505725630E+08, -1.362162788403335E+07,
2461337.500000000, A.D. 2026-Oct-24 00:00:00.0000, 3.347825652022702E+07, 4.239659354289421E+08, -1.382114586935934E+07,
2461344.500000000, A.D. 2026-Oct-31 00:00:00.0000, 2.195327936859080E+07, 4.244154708215766E+08, -1.401195078596097E+07,
2461351.500000000, A.D. 2026-Nov-07 00:00:00.0000, 1.041435127586971E+07, 4.245970106024414E+08, -1.419390386246592E+07,
2461358.500000000, A.D. 2026-Nov-14 00:00:00.0000, -1.131254464625076E+06, 4.245099595397242E+08, -1.436687435967261E+07,
2461365.500000000, A.D. 2026-Nov-21 00:00:00.0000, -1.267623296233231E+07, 4.241539777726255E+08, -1.453073965971634E+07,
2461372.500000000, A.D. 2026-Nov-28 00:00:00.0000, -2.421326148458511E+07, 4.235289830874808E+08, -1.468538526078278E+07,
2461379.500000000, A.D. 2026-Dec-05 00:00:00.0000, -3.573501189252154E+07, 4.226351503424789E+08, -1.483070506097966E+07,
2461386.500000000, A.D. 2026-Dec-12 00:00:00.0000, -4.723416154577349E+07, 4.214729111439546E+08, -1.496660169106027E+07,
2461393.500000000, A.D. 2026-Dec-19 00:00:00.0000, -5.870340451410028E+07, 4.200429537736336E+08, -1.509298672110200E+07,
2461400.500000000, A.D. 2026-Dec-26 00:00:00.0000, -7.013546319137171E+07, 4.183462224951447E+08, -1.520978079756093E+07,
2461407.500000000, A.D. 2027-Jan-02 00:00:00.0000, -8.152309998983778E+07, 4.163839160519824E+08, -1.531691375061417E+07,
2461414.500000000, A.D. 2027-Jan-09 00:00:00.0000, -9.285912895111626E+07, 4.141574853855651E+08, -1.541432468037701E+07,
2461421.500000000, A.D. 2027-Jan-16 00:00:00.0000, -1.041364271922062E+08, 4.116686305942550E+08, -1.550196202431354E+07,
2461428.500000000, A.D. 2027-Jan-23 00:00:00.0000, -1.153479460956005E+08, 4.089192971087345E+08, -1.557978361323801E+07,
2461435.500000000, A.D. 2027-Jan-30 00:00:00.0000, -1.264867220129625E+08, 4.059116710542591E+08, -1.564775673708832E+07,
2461442.500000000, A.D. 2027-Feb-06 00:00:00.0000, -1.375458860173061E+08, 4.026481741618934E+08, -1.570585823186705E+07,
2461449.500000000, A.D. 2027-Feb-13 00:00:00.0000, -1.485186731261835E+08, 3.991314594752207E+08, -1.575407444643271E+07,
2461456.500000000, A.D. 2027-Feb-20 00:00:00.0000, -1.593984333224320E+08, 3.953644070924110E+08, -1.579240093793164E+07,
2461463.500000000, A.D. 2027-Feb-27 00:00:00.0000, -1.701786429395562E+08, 3.913501167593163E+08, -1.582084228694770E+07,
2461470.500000000, A.D. 2027-Mar-06 00:00:00.0000, -1.808529133632884E+08, 3.870918992671570E+08, -1.583941215238599E+07,
2461477.500000000, A.D. 2027-Mar-13 00:00:00.0000, -1.914149986227807E+08, 3.825932687428837E+08, -1.584813325320114E+07,
2461484.500000000, A.D. 2027-Mar-20 00:00:00.0000, -2.018588029741820E+08, 3.778579350368569E+08, -1.584703724291071E+07,
2461491.500000000, A.D. 2027-Mar-27 00:00:00.0000, -2.121783882515242E+08, 3.728897956974307E+08, -1.583616454128851E+07,
2461498.500000000, A.D. 2027-Apr-03 00:00:00.0000, -2.223679807632912E+08, 3.676929275245672E+08, -1.581556414684047E+07,
2461505.500000000, A.D. 2027-Apr-10 00:00:00.0000, -2.324219776584570E+08, 3.622715777666723E+08, -1.578529343500596E+07,
2461512.500000000, A.D. 2027-Apr-17 00:00:00.0000, -2.423349527284827E+08, 3.566301549881294E+08, -1.574541794656248E+07,
2461519.500000000, A.D. 2027-Apr-24 00:00:00.0000, -2.521016615580946E+08, 3.507732195872911E+08, -1.569601117989387E+07,
2461526.500000000, A.D. 2027-May-01 00:00:00.0000, -2.617170457206921E+08, 3.447054740343472E+08, -1.563715441365294E+07,
2461533.500000000, A.D. 2027-May-08 00:00:00.0000, -2.711762357101928E+08, 3.384317536184702E+08, -1.556893652820161E+07,
2461540.500000000, A.D. 2027-May-15 00:00:00.0000, -2.804745541096005E+08, 3.319570186988438E+08, -1.549145361218695E+07,
2461547.500000000, A.D. 2027-May-22 00:00:00.0000, -2.896075205655836E+08, 3.252863459095081E+08, -1.540480842432483E+07,
2461554.500000000, A.D. 2027-May-29 00:00:00.0000, -2.985708552185244E+08, 3.184249168868726E+08, -1.530911013916439E+07,
2461561.500000000, A.D. 2027-Jun-05 00:00:00.0000, -3.073604797143006E+08, 3.113780076852832E+08, -1.520447420295368E+07,
2461568.500000000, A.D. 2027-Jun-12 00:00:00.0000, -3.159725178213699E+08, 3.041509793484104E+08, -1.509102208183493E+07,
2461575.500000000, A.D. 2027-Jun-19 00:00:00.0000, -3.244032960001444E+08, 2.967492687360418E+08, -1.496888094987150E+07,
2461582.500000000, A.D. 2027-Jun-26 00:00:00.0000, -3.326493436625184E+08, 2.891783793758912E+08, -1.483818336495970E+07,
2461589.500000000, A.D. 2027-Jul-03 00:00:00.0000, -3.407073930090836E+08, 2.814438723771403E+08, -1.469906694505690E+07,
2461596.500000000, A.D. 2027-Jul-10 00:00:00.0000, -3.485743784288267E+08, 2.735513574408668E+08, -1.455167404837254E+07,
2461603.500000000, A.D. 2027-Jul-17 00:00:00.0000, -3.562474354480702E+08, 2.655064839528485E+08, -1.439615146496931E+07,
2461610.500000000, A.D. 2027-Jul-24 00:00:00.0000, -3.637238990964223E+08, 2.573149321181520E+08, -1.423265014015022E+07,
2461617.500000000, A.D. 2027-Jul-31 00:00:00.0000, -3.710013013031418E+08, 2.489824043929651E+08, -1.406132494894290E+07,
2461624.500000000, A.D. 2027-Aug-07 00:00:00.0000, -3.780773675500134E+08, 2.405146183829453E+08, -1.388233440993972E+07,
2461631.500000000, A.D. 2027-Aug-14 00:00:00.0000, -3.849500151081277E+08, 2.319173009705490E+08, -1.369584014903912E+07,
2461638.500000000, A.D. 2027-Aug-21 00:00:00.0000, -3.916173522654881E+08, 2.231961803215651E+08, -1.350200644549468E+07,
2461645.500000000, A.D. 2027-Aug-28 00:00:00.0000, -3.980776751362259E+08, 2.143569769834842E+08, -1.330100007671580E+07,
2461652.500000000, A.D. 2027-Sep-04 00:00:00.0000, -4.043294632570179E+08, 2.054053965823859E+08, -1.309299014922329E+07,
2461659.500000000, A.D. 2027-Sep-11 00:00:00.0000, -4.103713753946736E+08, 1.963471234618696E+08, -1.287814784282167E+07,
2461666.500000000, A.D. 2027-Sep-18 00:00:00.0000, -4.162022454599510E+08, 1.871878146193719E+08, -1.265664613444424E+07,
2461673.500000000, A.D. 2027-Sep-25 00:00:00.0000, -4.218210783252369E+08, 1.779330938666616E+08, -1.242865952994403E+07,
2461680.500000000, A.D. 2027-Oct-02 00:00:00.0000, -4.272270454959319E+08, 1.685885462449398E+08, -1.219436380924196E+07,
2461687.500000000, A.D. 2027-Oct-09 00:00:00.0000, -4.324194806363448E+08, 1.591597126910927E+08, -1.195393578785712E+07,
2461694.500000000, A.D. 2027-Oct-16 00:00:00.0000, -4.373978749087750E+08, 1.496520848993214E+08, -1.170755310551471E+07,
2461701.500000000, A.D. 2027-Oct-23 00:00:00.0000, -4.421618718865666E+08, 1.400711003697509E+08, -1.145539406640584E+07,
2461708.500000000, A.D. 2027-Oct-30 00:00:00.0000, -4.467112616859989E+08, 1.304221382499964E+08, -1.119763751574934E+07,
2461715.500000000, A.D. 2027-Nov-06 00:00:00.0000, -4.510459754994329E+08, 1.207105170919332E+08, -1.093446255389211E+07,
2461722.500000000, A.D. 2027-Nov-13 00:00:00.0000, -4.551660825345417E+08, 1.109414924409247E+08, -1.066604807578579E+07,
2461729.500000000, A.D. 2027-Nov-20 00:00:00.0000, -4.590717864757405E+08, 1.011202520656167E+08, -1.039257258072641E+07,
2461736.500000000, A.D. 2027-Nov-27 00:00:00.0000, -4.627634198642805E+08, 9.125191178522822E+07, -1.011421415810153E+07,
2461743.500000000, A.D. 2027-Dec-04 00:00:00.0000, -4.662414384342514E+08, 8.134151279819064E+07, -9.831150388627116E+06,
2461750.500000000, A.D. 2027-Dec-11 00:00:00.0000, -4.695064159699674E+08, 7.139401953825115E+07, -9.543558189400028E+06,
2461757.500000000, A.D. 2027-Dec-18 00:00:00.0000, -4.725590394233364E+08, 6.141431770968837E+07, -9.251613655628035E+06,
2461764.500000000, A.D. 2027-Dec-25 00:00:00.0000, -4.754001041508012E+08, 5.140721248978809E+07, -8.955491912916606E+06,
2461771.500000000, A.D. 2028-Jan-01 00:00:00.0000, -4.780305092387149E+08, 4.137742690282905E+07, -8.655366982420176E+06,
$$EOE